[
 {
   "city": "אלון",
   "zip": 1234567
 },
 {
   "city": "אשחר",
   "zip": 2019600
 },
 {
   "city": "בית רימון",
   "zip": 1795000
 },
 {
   "city": "גבעת אלה",
   "zip": 3657000
 },
 {
   "city": "הושעיה",
   "zip": 1791500
 },
 {
   "city": "הסוללים",
   "zip": 1790500
 },
 {
   "city": "חנתון",
   "zip": 1796000
 },
 {
   "city": "יובלים",
   "zip": 2014200
 },
 {
   "city": "יודפת",
   "zip": 2018000
 },
 {
   "city": "מנוף",
   "zip": 2018400
 },
 {
   "city": "משגב",
   "zip": 2017900
 },
 {
   "city": "עדי",
   "zip": 1794000
 },
 {
   "city": "ציפורי",
   "zip": 1791000
 },
 {
   "city": "קורנית",
   "zip": 2018100
 },
 {
   "city": "רקפת",
   "zip": 2017500
 },
 {
   "city": "שדה אילן",
   "zip": 1526000
 },
 {
   "city": "שורשים",
   "zip": 2016400
 },
 {
   "city": "שכניה",
   "zip": 2018300
 },
 {
   "city": "שמשית",
   "zip": 1790600
 },
 {
   "city": "אלוני אבא",
   "zip": 3600500
 },
 {
   "city": "אלונים",
   "zip": 3657700
 },
 {
   "city": "בית לחם הגלילית",
   "zip": 3600700
 },
 {
   "city": "בית שערים",
   "zip": 3657800
 },
 {
   "city": "בלפוריה",
   "zip": 1930500
 },
 {
   "city": "גבעת אלה",
   "zip": 3657000
 },
 {
   "city": "גבת",
   "zip": 3657900
 },
 {
   "city": "גניגר",
   "zip": 3658000
 },
 {
   "city": "הזורע",
   "zip": 3658100
 },
 {
   "city": "יפעת",
   "zip": 3658300
 },
 {
   "city": "יקנעם",
   "zip": 2064501
 },
 {
   "city": "כפר ברוך",
   "zip": 3658400
 },
 {
   "city": "כפר גדעון",
   "zip": 1931000
 },
 {
   "city": "כפר החורש",
   "zip": 1696000
 },
 {
   "city": "כפר חסידים",
   "zip": 2040000
 },
 {
   "city": "כפר יהושע",
   "zip": 3658200
 },
 {
   "city": "מגדל העמק",
   "zip": 2353001
 },
 {
   "city": "מגידו",
   "zip": 1923000
 },
 {
   "city": "מזרע",
   "zip": 1931200
 },
 {
   "city": "משמר העמק",
   "zip": 1923600
 },
 {
   "city": "נופית",
   "zip": 3600100
 },
 {
   "city": "עין השופט",
   "zip": 1923700
 },
 {
   "city": "עפולה",
   "zip": 1830101
 },
 {
   "city": "קרית טבעון",
   "zip": 3604101
 },
 {
   "city": "רכסים",
   "zip": 2049600
 },
 {
   "city": "רמת דוד",
   "zip": 3658700
 },
 {
   "city": "רמת ישי",
   "zip": 3004501
 },
 {
   "city": "שדה יעקב",
   "zip": 3658600
 },
 {
   "city": "שריד",
   "zip": 3658900
 },
 {
   "city": "תל עדשים",
   "zip": 1931500
 },
 {
   "city": "בנימינה",
   "zip": 3056101
 },
 {
   "city": "גבעת עדה",
   "zip": 3780800
 },
 {
   "city": "זכרון יעקב",
   "zip": 3091890
 },
 {
   "city": "כפר פינס",
   "zip": 3792000
 },
 {
   "city": "פרדס חנה",
   "zip": 3703418
 }
]